{"type": "FeatureCollection", "features": [ {"type": "Feature", "properties": {"norad_id": 31715, "name": "FENGYUN 1C DEB", "group": "fengyun-1c-debris", "lat": -68.39757847489065, "lon": -24.75607602640678, "alt_km": 829.3590653073152, "timestamp": "2025-12-16T10:53:45.753614+00:00", "meta": {"OBJECT_NAME": "FENGYUN 1C DEB", "OBJECT_ID": "1999-025CDN", "EPOCH": "2025-12-15T18:52:45.890400", "MEAN_MOTION": 14.52191896, "ECCENTRICITY": 0.01870714, "INCLINATION": 99.293, "RA_OF_ASC_NODE": 178.9307, "ARG_OF_PERICENTER": 110.3781, "MEAN_ANOMALY": 251.7616, "EPHEMERIS_TYPE": 0, "CLASSIFICATION_TYPE": "U", "NORAD_CAT_ID": 31715, "ELEMENT_SET_NO": 999, "REV_AT_EPOCH": 61761, "BSTAR": 0.00053720329, "MEAN_MOTION_DOT": 2.678e-05, "MEAN_MOTION_DDOT": 0}, "tle": {"line1": "1 31715U 99025CDN 25349.78664225  .00002678  00000+0  53720-3 0  9997", "line2": "2 31715  99.2930 178.9307 0187071 110.3781 251.7616 14.52191896617616"}}, "geometry": {"type": "Point", "coordinates": [-24.75607602640678, -68.39757847489065]}}, {"type": "Feature", "properties": {"norad_id": 31716, "name": "FENGYUN 1C DEB", "group": "fengyun-1c-debris", "lat": -79.04752409303994, "lon": 18.13286021027861, "alt_km": 983.3514599757673, "timestamp": "2025-12-16T10:53:45.753624+00:00", "meta": {"OBJECT_NAME": "FENGYUN 1C DEB", "OBJECT_ID": "1999-025CDP", "EPOCH": "2025-12-15T05:18:38.953152", "MEAN_MOTION": 14.03618298, "ECCENTRICITY": 0.0130607, "INCLINATION": 98.5573, "RA_OF_ASC_NODE": 248.0547, "ARG_OF_PERICENTER": 84.2692, "MEAN_ANOMALY": 73.4304, "EPHEMERIS_TYPE": 0, "CLASSIFICATION_TYPE": "U", "NORAD_CAT_ID": 31716, "ELEMENT_SET_NO": 999, "REV_AT_EPOCH": 94154, "BSTAR": 0.0011158929, "MEAN_MOTION_DOT": 1.85e-05, "MEAN_MOTION_DDOT": 0}, "tle": {"line1": "1 31716U 99025CDP 25349.22128418  .00001850  00000+0  11159-2 0  9996", "line2": "2 31716  98.5573 248.0547 0130607  84.2692  73.4304 14.03618298941541"}}, "geometry": {"type": "Point", "coordinates": [18.13286021027861, -79.04752409303994]}}, {"type": "Feature", "properties": {"norad_id": 31720, "name": "FENGYUN 1C DEB", "group": "fengyun-1c-debris", "lat": -63.11159237734256, "lon": 64.47238240792, "alt_km": 709.4027529883015, "timestamp": "2025-12-16T10:53:45.753646+00:00", "meta": {"OBJECT_NAME": "FENGYUN 1C DEB", "OBJECT_ID": "1999-025CDT", "EPOCH": "2025-12-14T05:35:13.900992", "MEAN_MOTION": 14.71840487, "ECCENTRICITY": 0.01000729, "INCLINATION": 99.048, "RA_OF_ASC_NODE": 260.3197, "ARG_OF_PERICENTER": 118.9375, "MEAN_ANOMALY": 242.1909, "EPHEMERIS_TYPE": 0, "CLASSIFICATION_TYPE": "U", "NORAD_CAT_ID": 31720, "ELEMENT_SET_NO": 999, "REV_AT_EPOCH": 98258, "BSTAR": 0.0009016063, "MEAN_MOTION_DOT": 6.038e-05, "MEAN_MOTION_DDOT": 0}, "tle": {"line1": "1 31720U 99025CDT 25348.23279978  .00006038  00000+0  90161-3 0  9993", "line2": "2 31720  99.0480 260.3197 0100072 118.9375 242.1909 14.71840487982580"}}, "geometry": {"type": "Point", "coordinates": [64.47238240792, -63.11159237734256]}}, {"type": "Feature", "properties": {"norad_id": 31721, "name": "FENGYUN 1C DEB", "group": "fengyun-1c-debris", "lat": 79.310975716786, "lon": -143.78811688029876, "alt_km": 929.2713010267817, "timestamp": "2025-12-16T10:53:45.753657+00:00", "meta": {"OBJECT_NAME": "FENGYUN 1C DEB", "OBJECT_ID": "1999-025CDU", "EPOCH": "2025-12-14T04:19:36.790752", "MEAN_MOTION": 13.73779302, "ECCENTRICITY": 0.03174412, "INCLINATION": 99.7811, "RA_OF_ASC_NODE": 327.8381, "ARG_OF_PERICENTER": 179.7828, "MEAN_ANOMALY": 199.0539, "EPHEMERIS_TYPE": 0, "CLASSIFICATION_TYPE": "U", "NORAD_CAT_ID": 31721, "ELEMENT_SET_NO": 999, "REV_AT_EPOCH": 67406, "BSTAR": 0.00045246287, "MEAN_MOTION_DOT": 5.63e-06, "MEAN_MOTION_DDOT": 0}, "tle": {"line1": "1 31721U 99025CDU 25348.18028693  .00000563  00000+0  45246-3 0  9995", "line2": "2 31721  99.7811 327.8381 0317441 179.7828 199.0539 13.73779302674066"}}, "geometry": {"type": "Point", "coordinates": [-143.78811688029876, 79.310975716786]}}, {"type": "Feature", "properties": {"norad_id": 31724, "name": "FENGYUN 1C DEB", "group": "fengyun-1c-debris", "lat": -20.682339749417196, "lon": 173.19164843642693, "alt_km": 639.6285255357916, "timestamp": "2025-12-16T10:53:45.753668+00:00", "meta": {"OBJECT_NAME": "FENGYUN 1C DEB", "OBJECT_ID": "1999-025CDX", "EPOCH": "2025-12-14T23:09:45.111744", "MEAN_MOTION": 14.49153106, "ECCENTRICITY": 0.01518645, "INCLINATION": 97.8551, "RA_OF_ASC_NODE": 354.792, "ARG_OF_PERICENTER": 235.2767, "MEAN_ANOMALY": 123.4047, "EPHEMERIS_TYPE": 0, "CLASSIFICATION_TYPE": "U", "NORAD_CAT_ID": 31724, "ELEMENT_SET_NO": 999, "REV_AT_EPOCH": 64524, "BSTAR": 0.001585894, "MEAN_MOTION_DOT": 6.947e-05, "MEAN_MOTION_DDOT": 0}, "tle": {"line1": "1 31724U 99025CDX 25348.96510546  .00006947  00000+0  15859-2 0  9995", "line2": "2 31724  97.8551 354.7920 0151864 235.2767 123.4047 14.49153106645247"}}, "geometry": {"type": "Point", "coordinates": [173.19164843642693, -20.682339749417196]}}, {"type": "Feature", "properties": {"norad_id": 31725, "name": "FENGYUN 1C DEB", "group": "fengyun-1c-debris", "lat": -80.70778831694523, "lon": -72.04091283673233, "alt_km": 1021.3453465355196, "timestamp": "2025-12-16T10:53:45.753678+00:00", "meta": {"OBJECT_NAME": "FENGYUN 1C DEB", "OBJECT_ID": "1999-025CDY", "EPOCH": "2025-12-15T20:17:15.396576", "MEAN_MOTION": 12.7919775, "ECCENTRICITY": 0.06944809, "INCLINATION": 99.1805, "RA_OF_ASC_NODE": 206.2248, "ARG_OF_PERICENTER": 327.9275, "MEAN_ANOMALY": 28.1283, "EPHEMERIS_TYPE": 0, "CLASSIFICATION_TYPE": "U", "NORAD_CAT_ID": 31725, "ELEMENT_SET_NO": 999, "REV_AT_EPOCH": 86521, "BSTAR": 0.0024483269, "MEAN_MOTION_DOT": 1.493e-05, "MEAN_MOTION_DDOT": 0}, "tle": {"line1": "1 31725U 99025CDY 25349.84531709  .00001493  00000+0  24483-2 0  9992", "line2": "2 31725  99.1805 206.2248 0694480 327.9275  28.1283 12.79197750865216"}}, "geometry": {"type": "Point", "coordinates": [-72.04091283673233, -80.70778831694523]}}, {"type": "Feature", "properties": {"norad_id": 31727, "name": "FENGYUN 1C DEB", "group": "fengyun-1c-debris", "lat": 48.603753506855654, "lon": 92.41424341203313, "alt_km": 759.9695981116065, "timestamp": "2025-12-16T10:53:45.753688+00:00", "meta": {"OBJECT_NAME": "FENGYUN 1C DEB", "OBJECT_ID": "1999-025CEA", "EPOCH": "2025-12-14T19:16:02.017632", "MEAN_MOTION": 14.37046951, "ECCENTRICITY": 0.00322529, "INCLINATION": 98.8646, "RA_OF_ASC_NODE": 100.9116, "ARG_OF_PERICENTER": 333.7368, "MEAN_ANOMALY": 177.9159, "EPHEMERIS_TYPE": 0, "CLASSIFICATION_TYPE": "U", "NORAD_CAT_ID": 31727, "ELEMENT_SET_NO": 999, "REV_AT_EPOCH": 71698, "BSTAR": 0.0016616957, "MEAN_MOTION_DOT": 4.916e-05, "MEAN_MOTION_DDOT": 0}, "tle": {"line1": "1 31727U 99025CEA 25348.80280113  .00004916  00000+0  16617-2 0  9992", "line2": "2 31727  98.8646 100.9116 0032252 333.7368 177.9159 14.37046951716988"}}, "geometry": {"type": "Point", "coordinates": [92.41424341203313, 48.603753506855654]}}, {"type": "Feature", "properties": {"norad_id": 31731, "name": "FENGYUN 1C DEB", "group": "fengyun-1c-debris", "lat": -80.44928272462649, "lon": 141.87184802078573, "alt_km": 773.1641514478379, "timestamp": "2025-12-16T10:53:45.753699+00:00", "meta": {"OBJECT_NAME": "FENGYUN 1C DEB", "OBJECT_ID": "1999-025CEE", "EPOCH": "2025-11-27T02:07:07.827456", "MEAN_MOTION": 14.40063792, "ECCENTRICITY": 0.00116613, "INCLINATION": 99.3084, "RA_OF_ASC_NODE": 17.9462, "ARG_OF_PERICENTER": 144.9647, "MEAN_ANOMALY": 215.2308, "EPHEMERIS_TYPE": 0, "CLASSIFICATION_TYPE": "U", "NORAD_CAT_ID": 31731, "ELEMENT_SET_NO": 999, "REV_AT_EPOCH": 95605, "BSTAR": 0.0018623031, "MEAN_MOTION_DOT": 5.831e-05, "MEAN_MOTION_DDOT": 0}, "tle": {"line1": "1 31731U 99025CEE 25331.08828504  .00005831  00000+0  18623-2 0  9997", "line2": "2 31731  99.3084  17.9462 0011661 144.9647 215.2308 14.40063792956051"}}, "geometry": {"type": "Point", "coordinates": [141.87184802078573, -80.44928272462649]}}, {"type": "Feature", "properties": {"norad_id": 31732, "name": "FENGYUN 1C DEB", "group": "fengyun-1c-debris", "lat": 3.642832683817391, "lon": -154.40613901533544, "alt_km": 838.9998476154587, "timestamp": "2025-12-16T10:53:45.753709+00:00", "meta": {"OBJECT_NAME": "FENGYUN 1C DEB", "OBJECT_ID": "1999-025CEF", "EPOCH": "2025-12-15T20:27:28.217088", "MEAN_MOTION": 14.12257548, "ECCENTRICITY": 0.00398335, "INCLINATION": 98.5737, "RA_OF_ASC_NODE": 24.4681, "ARG_OF_PERICENTER": 236.5526, "MEAN_ANOMALY": 123.1835, "EPHEMERIS_TYPE": 0, "CLASSIFICATION_TYPE": "U", "NORAD_CAT_ID": 31732, "ELEMENT_SET_NO": 999, "REV_AT_EPOCH": 64374, "BSTAR": 0.00031479381, "MEAN_MOTION_DOT": 5.41e-06, "MEAN_MOTION_DDOT": 0}, "tle": {"line1": "1 31732U 99025CEF 25349.85240992  .00000541  00000+0  31479-3 0  9999", "line2": "2 31732  98.5737  24.4681 0039833 236.5526 123.1835 14.12257548643743"}}, "geometry": {"type": "Point", "coordinates": [-154.40613901533544, 3.642832683817391]}}, {"type": "Feature", "properties": {"norad_id": 31734, "name": "FENGYUN 1C DEB", "group": "fengyun-1c-debris", "lat": -56.00242899635485, "lon": -4.691013808691539, "alt_km": 757.1898149712079, "timestamp": "2025-12-16T10:53:45.753718+00:00", "meta": {"OBJECT_NAME": "FENGYUN 1C DEB", "OBJECT_ID": "1999-025CEH", "EPOCH": "2025-12-10T17:21:48.423168", "MEAN_MOTION": 14.29008825, "ECCENTRICITY": 0.01040397, "INCLINATION": 98.4988, "RA_OF_ASC_NODE": 336.9135, "ARG_OF_PERICENTER": 13.5368, "MEAN_ANOMALY": 346.8567, "EPHEMERIS_TYPE": 0, "CLASSIFICATION_TYPE": "U", "NORAD_CAT_ID": 31734, "ELEMENT_SET_NO": 999, "REV_AT_EPOCH": 96422, "BSTAR": 0.0007502923, "MEAN_MOTION_DOT": 1.97e-05, "MEAN_MOTION_DDOT": 0}, "tle": {"line1": "1 31734U 99025CEH 25344.72347712  .00001970  00000+0  75029-3 0  9996", "line2": "2 31734  98.4988 336.9135 0104039  13.5368 346.8567 14.29008825964220"}}, "geometry": {"type": "Point", "coordinates": [-4.691013808691539, -56.00242899635485]}}]}